AXCS001 xctrack-sbb-widget synthetic fixture
HFDTE110926
HFPLTPILOTINCHARGE:Test Pilot
HFGTYGLIDERTYPE:Synthetic EN-B
HFDTM100GPSDATUM:WGS-1984
HFSITSite:Interlaken
B1215004642075N00748000EA0157001600
B1215054642011N00748110EA0157701607
B1215104641929N00748033EA0158301613
B1215154641970N00747903EA0159001620
B1215204642066N00747944EA0159701627
B1215254642052N00748088EA0160301633
B1215304641954N00748089EA0161001640
B1215354641941N00747947EA0161701647
B1215404642036N00747907EA0162301653
B1215454642078N00748039EA0163001660
B1215504641995N00748118EA0163701667
B1215554641931N00748010EA0164301673
B1216004641996N00747902EA0165001680
B1216054642080N00747981EA0165701687
B1216104642040N00748113EA0166301693
B1216154641946N00748073EA0167001700
B1216204641960N00747931EA0167701707
B1216254642060N00747932EA0168301713
B1216304642074N00748076EA0169001720
B1216354641980N00748117EA0169701727
B1216404641940N00747987EA0170301733
B1216454642023N00747910EA0171001740
B1216504642089N00748020EA0171701747
B1216554642025N00748130EA0172301753
B1217004641942N00748053EA0173001760
B1217054641984N00747922EA0173701767
B1217104642079N00747964EA0174301773
B1217154642066N00748107EA0175001780
B1217204641967N00748108EA0175701787
B1217254641954N00747967EA0176301793
B1217304642049N00747927EA0177001800
B1217354642091N00748059EA0177701807
B1217404642008N00748138EA0178301813
B1217454641944N00748030EA0179001820
B1217504642010N00747922EA0179701827
B1217554642093N00748001EA0180301833
B1218004642053N00748132EA0181001840
B1218054641959N00748093EA0181701847
B1218104641973N00747951EA0182301853
B1218154642073N00747952EA0183001860
B1218204642087N00748095EA0183701867
B1218254641993N00748137EA0184301873
B1218304641953N00748007EA0185001880
B1218354642037N00747930EA0185701887
B1218404642102N00748040EA0186301893
B1218454642038N00748149EA0187001900
B1218504641955N00748072EA0187701907
B1218554641997N00747942EA0188301913
B1219004642092N00747984EA0189001920
B1219054642079N00748127EA0189701927
B1219104641981N00748128EA0190301933
B1219154641967N00747986EA0191001940
B1219204642063N00747947EA0191701947
B1219254642104N00748079EA0192301953
B1219304642022N00748158EA0193001960
B1219354641958N00748049EA0193701967
B1219404642023N00747941EA0194301973
B1219454642107N00748020EA0195001980
B1219504642066N00748152EA0195701987
B1219554641972N00748113EA0196301993
B1220004641987N00747971EA0197002000
B1220054642086N00747972EA0197702007
B1220104642101N00748115EA0198302013
B1220154642006N00748157EA0199002020
B1220204641966N00748027EA0199702027
B1220254642050N00747950EA0200302033
B1220304642115N00748059EA0201002040
B1220354642051N00748169EA0201702047
B1220404641968N00748092EA0202302053
B1220454642010N00747962EA0203002060
B1220504642105N00748004EA0203702067
B1220554642092N00748147EA0204302073
B1221004641994N00748148EA0205002080
B1221054641980N00748006EA0205702087
B1221104642076N00747967EA0206302093
B1221154642117N00748098EA0207002100
B1221204642035N00748177EA0207702107
B1221254641971N00748069EA0208302113
B1221304642036N00747961EA0209002120
B1221354642120N00748040EA0209702127
B1221404642079N00748172EA0210302133
B1221454641985N00748132EA0211002140
B1221504642000N00747991EA0211702147
B1221554642099N00747992EA0212302153
B1222004642114N00748135EA0213002160
B1222054642020N00748177EA0213702167
B1222104641979N00748046EA0214302173
B1222154642063N00747969EA0215002180
B1222204642128N00748079EA0215702187
B1222254642064N00748189EA0216302193
B1222304641982N00748112EA0217002200
B1222354642023N00747982EA0217702207
B1222404642119N00748023EA0218302213
B1222454642105N00748167EA0219002220
B1222504642007N00748168EA0219702227
B1222554641994N00748026EA0220302233
B1223004642089N00747986EA0221002240
B1223054642131N00748118EA0221702247
B1223104642048N00748197EA0222302253
B1223154641984N00748089EA0223002260
B1223204642049N00747981EA0223702267
B1223254642133N00748060EA0224302273
B1223304642093N00748192EA0225002280
B1223354641998N00748152EA0225702287
B1223404642013N00748010EA0226302293
B1223454642112N00748011EA0227002300
B1223504642127N00748155EA0227702307
B1223554642033N00748196EA0228302313
B1224004641992N00748066EA0229002320
B1224054642076N00747989EA0229702327
B1224104642141N00748099EA0230302333
B1224154642077N00748209EA0231002340
B1224204641995N00748132EA0231702347
B1224254642036N00748002EA0232302353
B1224304642132N00748043EA0233002360
B1224354642118N00748187EA0233702367
B1224404642020N00748188EA0234302373
B1224454642007N00748046EA0235002380
B1224504642102N00748006EA0235702387
B1224554642144N00748138EA0236302393
B1225004642000N00748000EA0237002400
B1225054642023N00748045EA0236502395
B1225104642047N00748090EA0236002390
B1225154642070N00748135EA0235502385
B1225204642094N00748180EA0235002380
B1225254642117N00748225EA0234502375
B1225304642141N00748270EA0234002370
B1225354642164N00748315EA0233502365
B1225404642187N00748360EA0233002360
B1225454642210N00748405EA0232502355
B1225504642233N00748450EA0232002350
B1225554642256N00748495EA0231502345
B1226004642279N00748540EA0231002340
B1226054642302N00748585EA0230502335
B1226104642325N00748630EA0230002330
B1226154642348N00748675EA0229502325
B1226204642371N00748720EA0229002320
B1226254642393N00748765EA0228502315
B1226304642415N00748810EA0228002310
B1226354642438N00748855EA0227502305
B1226404642460N00748900EA0227002300
B1226454642482N00748945EA0226502295
B1226504642504N00748990EA0226002290
B1226554642525N00749035EA0225502285
B1227004642547N00749080EA0225002280
B1227054642569N00749125EA0224502275
B1227104642590N00749170EA0224002270
B1227154642611N00749215EA0223502265
B1227204642632N00749260EA0223002260
B1227254642653N00749305EA0222502255
B1227304642673N00749350EA0222002250
B1227354642694N00749395EA0221502245
B1227404642714N00749440EA0221002240
B1227454642734N00749485EA0220502235
B1227504642754N00749530EA0220002230
B1227554642774N00749575EA0219502225
B1228004642794N00749620EA0219002220
B1228054642813N00749665EA0218502215
B1228104642832N00749710EA0218002210
B1228154642851N00749755EA0217502205
B1228204642870N00749800EA0217002200
B1228254642889N00749845EA0216502195
B1228304642907N00749890EA0216002190
B1228354642925N00749935EA0215502185
B1228404642944N00749980EA0215002180
B1228454642961N00750025EA0214502175
B1228504642979N00750070EA0214002170
B1228554642997N00750115EA0213502165
B1229004643014N00750160EA0213002160
B1229054643031N00750205EA0212502155
B1229104643048N00750250EA0212002150
B1229154643065N00750295EA0211502145
B1229204643082N00750340EA0211002140
B1229254643098N00750385EA0210502135
B1229304643115N00750430EA0210002130
B1229354643131N00750475EA0209502125
B1229404643147N00750520EA0209002120
B1229454643163N00750565EA0208502115
B1229504643179N00750610EA0208002110
B1229554643194N00750655EA0207502105
B1230004643210N00750700EA0207002100
B1230054643225N00750745EA0206502095
B1230104643240N00750790EA0206002090
B1230154643256N00750835EA0205502085
B1230204643271N00750880EA0205002080
B1230254643285N00750925EA0204502075
B1230304643300N00750970EA0204002070
B1230354643315N00751015EA0203502065
B1230404643329N00751060EA0203002060
B1230454643344N00751105EA0202502055
B1230504643358N00751150EA0202002050
B1230554643373N00751195EA0201502045
B1231004643387N00751240EA0201002040
B1231054643401N00751285EA0200502035
B1231104643416N00751330EA0200002030
B1231154643430N00751375EA0199502025
B1231204643444N00751420EA0199002020
B1231254643458N00751465EA0198502015
B1231304643472N00751510EA0198002010
B1231354643486N00751555EA0197502005
B1231404643500N00751600EA0197002000
B1231454643514N00751645EA0196501995
B1231504643528N00751690EA0196001990
B1231554643542N00751735EA0195501985
B1232004643556N00751780EA0195001980
B1232054643570N00751825EA0194501975
B1232104643584N00751870EA0194001970
B1232154643599N00751915EA0193501965
B1232204643613N00751960EA0193001960
B1232254643627N00752005EA0192501955
B1232304643642N00752050EA0192001950
B1232354643656N00752095EA0191501945
B1232404643671N00752140EA0191001940
B1232454643685N00752185EA0190501935
B1232504643700N00752230EA0190001930
B1232554643715N00752275EA0189501925
B1233004643729N00752320EA0189001920
B1233054643744N00752365EA0188501915
B1233104643760N00752410EA0188001910
B1233154643775N00752455EA0187501905
B1233204643790N00752500EA0187001900
B1233254643806N00752545EA0186501895
B1233304643821N00752590EA0186001890
B1233354643837N00752635EA0185501885
B1233404643853N00752680EA0185001880
B1233454643869N00752725EA0184501875
B1233504643885N00752770EA0184001870
B1233554643902N00752815EA0183501865
B1234004643918N00752860EA0183001860
B1234054643935N00752905EA0182501855
B1234104643952N00752950EA0182001850
B1234154643969N00752995EA0181501845
B1234204643986N00753040EA0181001840
B1234254644003N00753085EA0180501835
B1234304644021N00753130EA0180001830
B1234354644039N00753175EA0179501825
B1234404644056N00753220EA0179001820
B1234454644075N00753265EA0178501815
B1234504644093N00753310EA0178001810
B1234554644111N00753355EA0177501805
B1235004644130N00753400EA0177001800
B1235054644149N00753445EA0176501795
B1235104644168N00753490EA0176001790
B1235154644187N00753535EA0175501785
B1235204644206N00753580EA0175001780
B1235254644226N00753625EA0174501775
B1235304644246N00753670EA0174001770
B1235354644266N00753715EA0173501765
B1235404644286N00753760EA0173001760
B1235454644306N00753805EA0172501755
B1235504644327N00753850EA0172001750
B1235554644347N00753895EA0171501745
B1236004644368N00753940EA0171001740
B1236054644389N00753985EA0170501735
B1236104644410N00754030EA0170001730
B1236154644431N00754075EA0169501725
B1236204644453N00754120EA0169001720
B1236254644475N00754165EA0168501715
B1236304644496N00754210EA0168001710
B1236354644518N00754255EA0167501705
B1236404644540N00754300EA0167001700
B1236454644562N00754345EA0166501695
B1236504644585N00754390EA0166001690
B1236554644607N00754435EA0165501685
B1237004644629N00754480EA0165001680
B1237054644652N00754525EA0164501675
B1237104644675N00754570EA0164001670
B1237154644698N00754615EA0163501665
B1237204644721N00754660EA0163001660
B1237254644744N00754705EA0162501655
B1237304644767N00754750EA0162001650
B1237354644790N00754795EA0161501645
B1237404644813N00754840EA0161001640
B1237454644836N00754885EA0160501635
B1237504644859N00754930EA0160001630
B1237554644883N00754975EA0159501625
B1238004644906N00755020EA0159001620
B1238054644930N00755065EA0158501615
B1238104644953N00755110EA0158001610
B1238154644977N00755155EA0157501605
B1238204645041N00755141EA0157001600
B1238254645001N00754999EA0158001610
B1238304645085N00754905EA0159001620
B1238354645168N00754998EA0160001630
B1238404645128N00755139EA0161001640
B1238454645025N00755118EA0162001650
B1238504645011N00754965EA0163001660
B1238554645108N00754906EA0164001670
B1239004645173N00755027EA0165001680
B1239054645109N00755148EA0166001690
B1239104645012N00755089EA0167001700
B1239154645026N00754936EA0168001710
B1239204645131N00754916EA0169001720
B1239254645171N00755057EA0170001730
B1239304645088N00755149EA0171001740
B1239354645005N00755056EA0172001750
B1239404645046N00754913EA0173001760
B1239454645150N00754933EA0174001770
B1239504645164N00755084EA0175001780
B1239554645067N00755142EA0176001790
B1240004645004N00755020EA0177001800
B1240054645068N00754898EA0178001810
B1240104645165N00754956EA0179001820
B1240154645152N00755107EA0180001830
B1240204645048N00755127EA0181001840
B1240254645008N00754984EA0182001850
B1240304645092N00754891EA0183001860
B1240354645175N00754983EA0184001870
B1240404645136N00755124EA0185001880
B1240454645032N00755104EA0186001890
B1240504645018N00754951EA0187001900
B1240554645116N00754892EA0188001910
B1241004645180N00755013EA0189001920
B1241054645116N00755134EA0190001930
B1241104645020N00755075EA0191001940
B1241154645034N00754922EA0192001950
B1241204645138N00754901EA0193001960
B1241254645178N00755042EA0194001970
B1241304645095N00755135EA0195001980
B1241354645012N00755041EA0196001990
B1241404645053N00754899EA0197002000
B1241454645157N00754918EA0198002010
B1241504645171N00755070EA0199002020
B1241554645075N00755128EA0200002030
B1242004645011N00755006EA0201002040
B1242054645075N00754883EA0202002050
B1242104645172N00754941EA0203002060
B1242154645159N00755093EA0204002070
B1242204645055N00755112EA0205002080
B1242254645015N00754970EA0206002090
B1242304645099N00754876EA0207002100
B1242354645183N00754969EA0208002110
B1242404645143N00755110EA0209002120
B1242454645039N00755089EA0210002130
B1242504645026N00754937EA0211002140
B1242554645123N00754877EA0212002150
B1243004645187N00754998EA0213002160
B1243054645123N00755119EA0214002170
B1243104645027N00755060EA0215002180
B1243154645041N00754908EA0216002190
B1243204645145N00754887EA0217002200
B1243254645186N00755028EA0218002210
B1243304645103N00755121EA0219002220
B1243354645020N00755027EA0220002230
B1243404645060N00754885EA0221002240
B1243454645164N00754904EA0222002250
B1243504645178N00755055EA0223002260
B1243554645082N00755113EA0224002270
B1244004645018N00754991EA0225002280
B1244054645082N00754869EA0226002290
B1244104645180N00754927EA0227002300
B1244154645166N00755078EA0228002310
B1244204645062N00755098EA0229002320
B1244254645023N00754956EA0230002330
B1244304645106N00754862EA0231002340
B1244354645190N00754954EA0232002350
B1244404645150N00755095EA0233002360
B1244454645046N00755075EA0234002370
B1244504645033N00754922EA0235002380
B1244554645130N00754863EA0236002390
B1245004645194N00754984EA0237002400
B1245054645131N00755105EA0238002410
B1245104645034N00755046EA0239002420
B1245154645048N00754893EA0240002430
B1245204645152N00754873EA0241002440
B1245254645193N00755014EA0242002450
B1245304645110N00755106EA0243002460
B1245354645027N00755012EA0244002470
B1245404645067N00754870EA0245002480
B1245454645172N00754890EA0246002490
B1245504645186N00755041EA0247002500
B1245554645089N00755099EA0248002510
B1246004645025N00754977EA0249002520
B1246054645090N00754855EA0250002530
B1246104645187N00754913EA0251002540
B1246154645173N00755064EA0252002550
B1246204645070N00755083EA0253002560
B1246254645030N00754941EA0254002570
B1246304645113N00754847EA0255002580
B1246354645197N00754940EA0256002590
B1246404645000N00755200EA0257002600
B1246454644964N00755170EA0256302593
B1246504644929N00755139EA0255602586
B1246554644893N00755109EA0254902579
B1247004644857N00755079EA0254202572
B1247054644822N00755048EA0253502565
B1247104644786N00755018EA0252802558
B1247154644751N00754987EA0252102551
B1247204644715N00754957EA0251402544
B1247254644679N00754927EA0250702537
B1247304644644N00754896EA0250002530
B1247354644608N00754866EA0249302523
B1247404644572N00754836EA0248602516
B1247454644537N00754805EA0247902509
B1247504644501N00754775EA0247202502
B1247554644465N00754745EA0246502495
B1248004644430N00754714EA0245802488
B1248054644394N00754684EA0245102481
B1248104644358N00754654EA0244402474
B1248154644323N00754623EA0243702467
B1248204644287N00754593EA0243002460
B1248254644252N00754562EA0242302453
B1248304644216N00754532EA0241602446
B1248354644180N00754502EA0240902439
B1248404644145N00754471EA0240202432
B1248454644109N00754441EA0239502425
B1248504644073N00754411EA0238802418
B1248554644038N00754380EA0238102411
B1249004644002N00754350EA0237402404
B1249054643966N00754320EA0236702397
B1249104643931N00754289EA0236002390
B1249154643895N00754259EA0235302383
B1249204643860N00754228EA0234602376
B1249254643824N00754198EA0233902369
B1249304643788N00754168EA0233202362
B1249354643753N00754137EA0232502355
B1249404643717N00754107EA0231802348
B1249454643681N00754077EA0231102341
B1249504643646N00754046EA0230402334
B1249554643610N00754016EA0229702327
B1250004643574N00753986EA0229002320
B1250054643539N00753955EA0228302313
B1250104643503N00753925EA0227602306
B1250154643467N00753895EA0226902299
B1250204643432N00753864EA0226202292
B1250254643396N00753834EA0225502285
B1250304643361N00753803EA0224802278
B1250354643325N00753773EA0224102271
B1250404643289N00753743EA0223402264
B1250454643254N00753712EA0222702257
B1250504643218N00753682EA0222002250
B1250554643182N00753652EA0221302243
B1251004643147N00753621EA0220602236
B1251054643111N00753591EA0219902229
B1251104643075N00753561EA0219202222
B1251154643040N00753530EA0218502215
B1251204643004N00753500EA0217802208
B1251254642969N00753469EA0217102201
B1251304642933N00753439EA0216402194
B1251354642897N00753409EA0215702187
B1251404642862N00753378EA0215002180
B1251454642826N00753348EA0214302173
B1251504642790N00753318EA0213602166
B1251554642755N00753287EA0212902159
B1252004642719N00753257EA0212202152
B1252054642683N00753227EA0211502145
B1252104642648N00753196EA0210802138
B1252154642612N00753166EA0210102131
B1252204642576N00753136EA0209402124
B1252254642541N00753105EA0208702117
B1252304642505N00753075EA0208002110
B1252354642470N00753044EA0207302103
B1252404642434N00753014EA0206602096
B1252454642398N00752984EA0205902089
B1252504642363N00752953EA0205202082
B1252554642327N00752923EA0204502075
B1253004642291N00752893EA0203802068
B1253054642256N00752862EA0203102061
B1253104642220N00752832EA0202402054
B1253154642184N00752802EA0201702047
B1253204642149N00752771EA0201002040
B1253254642113N00752741EA0200302033
B1253304642078N00752710EA0199602026
B1253354642042N00752680EA0198902019
B1253404642006N00752650EA0198202012
B1253454641971N00752619EA0197502005
B1253504641935N00752589EA0196801998
B1253554641899N00752559EA0196101991
B1254004641864N00752528EA0195401984
B1254054641828N00752498EA0194701977
B1254104641792N00752468EA0194001970
B1254154641757N00752437EA0193301963
B1254204641721N00752407EA0192601956
B1254254641685N00752377EA0191901949
B1254304641650N00752346EA0191201942
B1254354641614N00752316EA0190501935
B1254404641579N00752285EA0189801928
B1254454641543N00752255EA0189101921
B1254504641507N00752225EA0188401914
B1254554641472N00752194EA0187701907
B1255004641533N00752164EA0187001900
B1255054641436N00752305EA0184801878
B1255104641339N00752164EA0182601856
B1255154641436N00752023EA0180401834
B1255204641533N00752164EA0178201812
B1255254641436N00752305EA0176001790
B1255304641339N00752164EA0173801768
B1255354641436N00752023EA0171601746
B1255404641533N00752164EA0169401724
B1255454641436N00752305EA0167201702
B1255504641339N00752164EA0165001680
B1255554641436N00752023EA0162801658
B1256004641533N00752164EA0160601636
B1256054641436N00752305EA0158401614
B1256104641339N00752164EA0156201592
B1256154641436N00752023EA0154001570
B1256204641533N00752164EA0151801548
B1256254641436N00752305EA0149601526
B1256304641339N00752164EA0147401504
B1256354641436N00752023EA0145201482
B1256404641533N00752164EA0143001460
B1256454641436N00752305EA0140801438
B1256504641339N00752164EA0138601416
B1256554641436N00752023EA0136401394
B1257004641533N00752164EA0134201372
B1257054641436N00752305EA0132001350
B1257104641339N00752164EA0129801328
B1257154641436N00752023EA0127601306
B1257204641533N00752164EA0125401284
B1257254641436N00752305EA0123201262
B1257304641339N00752164EA0121001240
B1257354641436N00752023EA0118801218
B1257404641533N00752164EA0116601196
B1257454641436N00752305EA0114401174
B1257504641339N00752164EA0112201152
B1257554641436N00752023EA0110001130
B1258004641533N00752164EA0107801108
B1258054641436N00752305EA0105601086
B1258104641339N00752164EA0103401064
B1258154641436N00752023EA0101201042
B1258204641533N00752164EA0099001020
B1258254641436N00752305EA0096800998
B1258304641339N00752164EA0094600976
B1258354641436N00752023EA0092400954
B1258404641533N00752164EA0090200932
B1258454641436N00752305EA0088000910
B1258504641339N00752164EA0085800888
B1258554641436N00752023EA0083600866
B1259004641533N00752164EA0081400844
B1259054641436N00752305EA0079200822
B1259104641339N00752164EA0077000800
B1259154641436N00752023EA0074800778
B1259204641533N00752164EA0072600756
B1259254641436N00752305EA0070400734
B1259304641339N00752164EA0068200712
B1259354641436N00752023EA0066000690
B1259404641533N00752164EA0063800668
B1259454641436N00752305EA0061600646
B1259504641339N00752164EA0059400624
B1259554641436N00752023EA0057200602
B1300004641533N00752164EA0055000580
